norad_id,name,regime,epoch,line1,line2,inclination,eccentricity,mean_motion,raan,arg_pericenter,mean_anomaly
28082,CHINASAT 20,EGO,04357.24779838,1 28082U 03052A   04357.24779838 -.00000306  00000-0  10000-3 0  3456\,2 28082 000.0084 297.8008 0003877 028.6962 316.8213 01.00265669  4098,0.0084,0.0003877,1.00265669,297.8008,28.6962,316.8213
28082,CHINASAT 20,EGO,04357.68136856,1 28082U 03052A   04357.68136856 -.00000306  00000-0  10000-3 0  3462\,2 28082 000.0210 320.0425 0004377 003.3484 116.4513 01.00271273  4103,0.021,0.0004377,1.00271273,320.0425,3.3484,116.4513
28082,CHINASAT 20,EGO,04358.52466667,1 28082U 03052A   04358.52466667 -.00000304  00000-0  10000-3 0  3471\,2 28082 000.0251 248.3327 0003837 076.5685 059.3276 01.00265035  4117,0.0251,0.0003837,1.00265035,248.3327,76.5685,59.3276
28082,CHINASAT 20,EGO,04359.65115181,1 28082U 03052A   04359.65115181 -.00000303  00000-0  10000-3 0  3488\,2 28082 000.0243 247.4237 0003853 079.0253 104.4018 01.00264632  4124,0.0243,0.0003853,1.00264632,247.4237,79.0253,104.4018
28082,CHINASAT 20,EGO,04360.37148010,1 28082U 03052A   04360.37148010 -.00000303  00000-0  10000-3 0  3497\,2 28082 000.0120 319.1054 0004438 007.9239 003.8561 01.00267023  4128,0.012,0.0004438,1.00267023,319.1054,7.9239,3.8561
28082,CHINASAT 20,EGO,04361.19620418,1 28082U 03052A   04361.19620418 -.00000303  00000-0  10000-3 0  3507\,2 28082 000.0135 021.2491 0004769 307.5413 299.8006 01.00268704  4139,0.0135,0.0004769,1.00268704,21.2491,307.5413,299.8006
28082,CHINASAT 20,EGO,04361.83759721,1 28082U 03052A   04361.83759721 -.00000303  00000-0  10000-3 0  3519\,2 28082 000.0162 008.6097 0004798 319.3608 172.1431 01.00267969  4147,0.0162,0.0004798,1.00267969,8.6097,319.3608,172.1431
28082,CHINASAT 20,EGO,04363.40973928,1 28082U 03052A   04363.40973928 -.00000304  00000-0  10000-3 0  3523\,2 28082 000.0261 063.5530 0004745 262.3405 021.7439 01.00270819  4159,0.0261,0.0004745,1.00270819,63.553,262.3405,21.7439
28082,CHINASAT 20,EGO,04363.70354118,1 28082U 03052A   04363.70354118 -.00000303  00000-0  10000-3 0  3530\,2 28082 000.0267 063.5491 0004745 262.3499 127.7901 01.00268944  4162,0.0267,0.0004745,1.00268944,63.5491,262.3499,127.7901
28082,CHINASAT 20,EGO,04364.33747986,1 28082U 03052A   04364.33747986 -.00000303  00000-0  10000-3 0  3540\,2 28082 000.0153 021.7608 0004844 303.5914 357.1847 01.00269573  4169,0.0153,0.0004844,1.00269573,21.7608,303.5914,357.1847
28082,CHINASAT 20,EGO,04364.71386337,1 28082U 03052A   04364.71386337 -.00000303  00000-0  10000-3 0  3552\,2 28082 000.0159 023.2209 0004866 305.2248 129.9649 01.00270236  4176,0.0159,0.0004866,1.00270236,23.2209,305.2248,129.9649
28082,CHINASAT 20,EGO,04365.73418817,1 28082U 03052A   04365.73418817 -.00000303  00000-0  10000-3 0  3565\,2 28082 000.0177 037.3723 0004572 296.9491 132.4498 01.00272899  4182,0.0177,0.0004572,1.00272899,37.3723,296.9491,132.4498
28082,CHINASAT 20,EGO,04366.46989480,1 28082U 03052A   04366.46989480 -.00000302  00000-0  10000-3 0  3575\,2 28082 000.0149 033.0398 0004584 300.1280 039.1993 01.00273670  4191,0.0149,0.0004584,1.0027367,33.0398,300.128,39.1993
28082,CHINASAT 20,EGO,04366.92474786,1 28082U 03052A   04366.92474786 -.00000302 +00000-0 +10000-3 0 03585\,2 28082 000.0149 031.7634 0004440 300.9178 203.8900 01.00273830004190,0.0149,0.000444,1.0027383,31.7634,300.9178,203.89
28082,CHINASAT 20,EGO,04366.92845550,1 28082U 03052A   04366.92845550 -.00000302  00000-0  10000-3 0  3586\,2 28082 000.0115 021.3631 0004081 315.0530 201.5237 01.00279706  4191,0.0115,0.0004081,1.00279706,21.3631,315.053,201.5237
28082,CHINASAT 20,EGO,05001.20166756,1 28082U 03052A   05001.20166756 -.00000301  00000-0  10000-3 0  3598\,2 28082 000.0114 025.6518 0004244 306.4355 304.4671 01.00274745  4194,0.0114,0.0004244,1.00274745,25.6518,306.4355,304.4671
28082,CHINASAT 20,EGO,05001.73164008,1 28082U 03052A   05001.73164008 -.00000301 +00000-0 +10000-3 0 03606\,2 28082 000.0111 035.0755 0004227 298.8012 134.0021 01.00274848004206,0.0111,0.0004227,1.00274848,35.0755,298.8012,134.0021
28082,CHINASAT 20,EGO,05002.91309720,1 28082U 03052A   05002.91309720 -.00000299 +00000-0 +10000-3 0 03627\,2 28082 000.0147 033.4426 0004208 300.9545 199.9890 01.00274687004213,0.0147,0.0004208,1.00274687,33.4426,300.9545,199.989
28082,CHINASAT 20,EGO,05003.86138336,1 28082U 03052A   05003.86138336 -.00000298 +00000-0 +10000-3 0 03635\,2 28082 000.0149 034.9495 0004199 299.2421 182.5252 01.00274460004229,0.0149,0.0004199,1.0027446,34.9495,299.2421,182.5252
28082,CHINASAT 20,EGO,05004.45991891,1 28082U 03052A   05004.45991891 -.00000297  00000-0  10000-3 0  3622\,2 28082 000.0165 049.8451 0004186 286.2956 036.6643 01.00275764  4231,0.0165,0.0004186,1.00275764,49.8451,286.2956,36.6643
28082,CHINASAT 20,EGO,05004.72114039,1 28082U 03052A   05004.72114039 -.00000297  00000-0  10000-3 0  3634\,2 28082 000.0182 042.2069 0004236 292.4251 132.4582 01.00274288  4232,0.0182,0.0004236,1.00274288,42.2069,292.4251,132.4582
28082,CHINASAT 20,EGO,05005.42370124,1 28082U 03052A   05005.42370124 -.00000298  00000-0  10000-3 0  3643\,2 28082 000.0227 056.7557 0004088 277.9402 026.0370 01.00275321  4248,0.0227,0.0004088,1.00275321,56.7557,277.9402,26.037
28082,CHINASAT 20,EGO,05006.51856095,1 28082U 03052A   05006.51856095 -.00000299  00000-0  10000-3 0  3652\,2 28082 000.0184 036.0663 0004226 297.8531 062.0341 01.00273767  4258,0.0184,0.0004226,1.00273767,36.0663,297.8531,62.0341
28082,CHINASAT 20,EGO,05007.78694196,1 28082U 03052A   05007.78694196 -.00000303  00000-0  10000-3 0  3661\,2 28082 000.0207 037.9022 0004110 297.1719 158.7547 01.00273148  4261,0.0207,0.000411,1.00273148,37.9022,297.1719,158.7547
28082,CHINASAT 20,EGO,05008.65443241,1 28082U 03052A   05008.65443241 -.00000307 +00000-0 +10000-3 0 03687\,2 28082 000.0222 038.9065 0004109 296.2815 111.7960 01.00272739004275,0.0222,0.0004109,1.00272739,38.9065,296.2815,111.796
28082,CHINASAT 20,EGO,05008.82942127,1 28082U 03052A   05008.82942127 -.00000308  00000-0  10000-3 0  3673\,2 28082 000.0260 044.1180 0004102 291.0643 174.9729 01.00272719  4271,0.026,0.0004102,1.00272719,44.118,291.0643,174.9729
28082,CHINASAT 20,EGO,05009.84499624,1 28082U 03052A   05009.84499624 -.00000313  00000-0  10000-3 0  3682\,2 28082 000.0290 047.1326 0004105 288.4668 181.1668 01.00272259  4281,0.029,0.0004105,1.00272259,47.1326,288.4668,181.1668
28082,CHINASAT 20,EGO,05010.62707128,1 28082U 03052A   05010.62707128 -.00000317 +00000-0 +10000-3 0 03708\,2 28082 000.0327 053.3130 0004114 282.7262 103.0456 01.00271880004299,0.0327,0.0004114,1.0027188,53.313,282.7262,103.0456
28082,CHINASAT 20,EGO,05010.87611287,1 28082U 03052A   05010.87611287 -.00000318  00000-0  10000-3 0  3694\,2 28082 000.0340 055.5433 0004121 280.4332 193.0093 01.00271787  4297,0.034,0.0004121,1.00271787,55.5433,280.4332,193.0093
28082,CHINASAT 20,EGO,05011.75345446,1 28082U 03052A   05011.75345446 -.00000322 +00000-0 +10000-3 0 03700\,2 28082 000.0364 058.0313 0004099 278.4268 149.2353 01.00271385004305,0.0364,0.0004099,1.00271385,58.0313,278.4268,149.2353
28082,CHINASAT 20,EGO,05012.32678279,1 28082U 03052A   05012.32678279 -.00000323  00000-0  10000-3 0  3708\,2 28082 000.0366 057.1968 0004097 279.5508 355.9071 01.00271093  4309,0.0366,0.0004097,1.00271093,57.1968,279.5508,355.9071
28082,CHINASAT 20,EGO,05012.82331341,1 28082U 03052A   05012.82331341 -.00000324 +00000-0 +10000-3 0 03711\,2 28082 000.0379 057.8480 0004094 278.8483 175.1974 01.00270858004313,0.0379,0.0004094,1.00270858,57.848,278.8483,175.1974
28082,CHINASAT 20,EGO,05013.63887169,1 28082U 03052A   05013.63887169 -.00000324  00000-0  10000-3 0  3715\,2 28082 000.0410 060.9338 0004096 276.0929 109.2674 01.00270449  4325,0.041,0.0004096,1.00270449,60.9338,276.0929,109.2674
28082,CHINASAT 20,EGO,05014.61106248,1 28082U 03052A   05014.61106248 -.00000324 +00000-0 +10000-3 0 03738\,2 28082 000.0439 062.9072 0004085 274.1712 100.1562 01.00269966004339,0.0439,0.0004085,1.00269966,62.9072,274.1712,100.1562
28082,CHINASAT 20,EGO,05014.64115598,1 28082U 03052A   05014.64115598 -.00000323  00000-0  10000-3 0  3727\,2 28082 000.0444 064.2496 0004087 273.0034 110.8440 01.00269924  4334,0.0444,0.0004087,1.00269924,64.2496,273.0034,110.844
28082,CHINASAT 20,EGO,05015.63724755,1 28082U 03052A   05015.63724755 -.00000322 +00000-0 +10000-3 0 03749\,2 28082 000.0476 065.9355 0004093 271.3952 110.3339 01.00269462004348,0.0476,0.0004093,1.00269462,65.9355,271.3952,110.3339
28082,CHINASAT 20,EGO,05015.96880572,1 28082U 03052A   05015.96880572 -.00000320  00000-0  10000-3 0  3732\,2 28082 000.0493 066.4052 0004100 270.7954 230.1489 01.00269312  4342,0.0493,0.00041,1.00269312,66.4052,270.7954,230.1489
28082,CHINASAT 20,EGO,05016.70944890,1 28082U 03052A   05016.70944890 -.00000319 +00000-0 +10000-3 0 03748\,2 28082 000.0510 067.8965 0004110 269.1642 137.6419 01.00268938004355,0.051,0.000411,1.00268938,67.8965,269.1642,137.6419
28082,CHINASAT 20,EGO,05017.49949856,1 28082U 03052A   05017.49949856 -.00000316  00000-0  10000-3 0  3749\,2 28082 000.0529 068.2807 0004131 268.9421 062.6682 01.00268580  4363,0.0529,0.0004131,1.0026858,68.2807,268.9421,62.6682
28082,CHINASAT 20,EGO,05017.78956451,1 28082U 03052A   05017.78956451 -.00000316 +00000-0 +10000-3 0 03751\,2 28082 000.0534 069.6614 0004203 267.7710 167.1610 01.00268373004360,0.0534,0.0004203,1.00268373,69.6614,267.771,167.161
28082,CHINASAT 20,EGO,05018.71506519,1 28082U 03052A   05018.71506519 -.00000314 +00000-0 +10000-3 0 03759\,2 28082 000.0566 072.4477 0004215 265.1377 141.0889 01.00267944004371,0.0566,0.0004215,1.00267944,72.4477,265.1377,141.0889
28082,CHINASAT 20,EGO,05019.60933888,1 28082U 03052A   05019.60933888 -.00000313 +00000-0 +10000-3 0 03761\,2 28082 000.0590 073.0404 0004216 264.5706 103.8705 01.00267530004380,0.059,0.0004216,1.0026753,73.0404,264.5706,103.8705
